[{"OBJECT_NAME":"STARLINK-4303","OBJECT_ID":"2022-101T","EPOCH":"2026-03-09T05:23:41.760096","MEAN_MOTION":15.08836273,"ECCENTRICITY":0.0001366,"INCLINATION":53.2179,"RA_OF_ASC_NODE":66.2102,"ARG_OF_PERICENTER":95.7159,"MEAN_ANOMALY":264.3989,"EPHEMERIS_TYPE":0,"CLASSIFICATION_TYPE":"U","NORAD_CAT_ID":53544,"ELEMENT_SET_NO":999,"REV_AT_EPOCH":19690,"BSTAR":2.7006e-6,"MEAN_MOTION_DOT":-2.45e-6,"MEAN_MOTION_DDOT":0},{"OBJECT_NAME":"LEMUR-2-UNTITLED-SC","OBJECT_ID":"2025-061A","EPOCH":"2026-03-09T21:24:38.388672","MEAN_MOTION":15.12695529,"ECCENTRICITY":0.00173727,"INCLINATION":97.5556,"RA_OF_ASC_NODE":45.0864,"ARG_OF_PERICENTER":245.603,"MEAN_ANOMALY":114.3388,"EPHEMERIS_TYPE":0,"CLASSIFICATION_TYPE":"U","NORAD_CAT_ID":63351,"ELEMENT_SET_NO":999,"REV_AT_EPOCH":5257,"BSTAR":0.00033295729,"MEAN_MOTION_DOT":5.783e-5,"MEAN_MOTION_DDOT":0}]
